NORAD_CAT_ID,OBJECT_NAME,OBJECT_TYPE,EPOCH,MEAN_MOTION,ECCENTRICITY,INCLINATION,RA_OF_ASC_NODE,ARG_OF_PERICENTER,MEAN_ANOMALY,BSTAR,MEAN_MOTION_DOT,MEAN_MOTION_DDOT,TLE_LINE0,TLE_LINE1,TLE_LINE2,SEMIMAJOR_AXIS,PERIOD,APOGEE,PERIGEE,DECAYED
53251.0,STARLINK-4129,PAYLOAD,2023-09-24 00:24:13,15.08839108,0.0001625,53.2157,263.9315,92.1718,267.946,1.5278e-07,-2.86e-06,0.0,0 STARLINK-4129,1 53251U 22086K   23267.01681757 -.00000286  00000-0  15278-6 0  9995,2 53251  53.2157 263.9315 0001625  92.1718 267.9460 15.08839108 65369,6917.883,95.438,540.872,538.624,0.0
53251.0,STARLINK-4129,PAYLOAD,2023-09-24 05:10:22,15.08842163,0.0001511,53.2157,263.0398,99.0862,261.0301,5.2865e-05,5.54e-06,0.0,0 STARLINK-4129,1 53251U 22086K   23267.21553636  .00000554  00000-0  52865-4 0  9999,2 53251  53.2157 263.0398 0001511  99.0862 261.0301 15.08842163 65578,6917.874,95.437,540.784,538.693,0.0
53251.0,STARLINK-4129,PAYLOAD,2023-09-25 06:36:32,15.08846171,0.0001497,53.216,258.2829,86.1284,273.9879,0.00016682,2.368e-05,0.0,0 STARLINK-4129,1 53251U 22086K   23268.27537586  .00002368  00000-0  16682-3 0  9993,2 53251  53.2160 258.2829 0001497  86.1284 273.9879 15.08846171 65558,6917.862,95.437,540.762,538.691,0.0
53251.0,STARLINK-4129,PAYLOAD,2023-09-25 16:08:51,15.08847377,0.0001473,53.2158,256.4989,92.7889,267.3272,0.00014454,2.014e-05,0.0,0 STARLINK-4129,1 53251U 22086K   23268.67281398  .00002014  00000-0  14454-3 0  9997,2 53251  53.2158 256.4989 0001473  92.7889 267.3272 15.08847377 65799,6917.858,95.437,540.742,538.704,0.0
53251.0,STARLINK-4129,PAYLOAD,2023-09-26 08:02:41,15.08859583,0.0001553,53.2159,253.5261,98.3247,261.7921,0.00038632,5.869e-05,0.0,0 STARLINK-4129,1 53251U 22086K   23269.33520690  .00005869  00000-0  38632-3 0  9997,2 53251  53.2159 253.5261 0001553  98.3247 261.7921 15.08859583 65713,6917.821,95.436,540.76,538.611,0.0
53251.0,STARLINK-4129,PAYLOAD,2023-09-26 22:21:10,15.08846127,0.0001994,53.2155,250.8494,86.8706,273.2514,9.4253e-05,1.212e-05,0.0,0 STARLINK-4129,1 53251U 22086K   23269.93137224  .00001212  00000-0  94253-4 0  9990,2 53251  53.2155 250.8494 0001994  86.8706 273.2514 15.08846127 65804,6917.862,95.437,541.106,538.347,0.0
53251.0,STARLINK-4129,PAYLOAD,2023-09-27 07:53:29,15.08839024,0.0001375,53.2151,249.0652,104.7036,255.4108,-1.0289e-05,-4.52e-06,0.0,0 STARLINK-4129,1 53251U 22086K   23270.32881356 -.00000452  00000-0 -10289-4 0  9991,2 53251  53.2151 249.0652 0001375 104.7036 255.4108 15.08839024 66041,6917.883,95.438,540.7,538.797,0.0
53251.0,STARLINK-4129,PAYLOAD,2023-09-27 15:50:25,15.08828774,0.0001416,53.2151,247.5752,91.6348,268.4806,-0.00015197,-2.705e-05,0.0,0 STARLINK-4129,1 53251U 22086K   23270.66001895 -.00002705  00000-0 -15197-3 0  9995,2 53251  53.2151 247.5752 0001416  91.6348 268.4806 15.08828774 65915,6917.915,95.438,540.759,538.8,0.0
53251.0,STARLINK-4129,PAYLOAD,2023-09-28 07:44:17,15.08839283,0.0001435,53.2159,244.6012,91.0424,269.0732,1.22e-05,-9.4e-07,0.0,0 STARLINK-4129,1 53251U 22086K   23271.32242064 -.00000094  00000-0  12200-4 0  9995,2 53251  53.2159 244.6012 0001435  91.0424 269.0732 15.08839283 66014,6917.883,95.438,540.74,538.755,0.0
53251.0,STARLINK-4129,PAYLOAD,2023-09-28 23:38:09,15.08833396,0.0001369,53.2153,241.6279,91.0723,269.0426,0.00019601,2.832e-05,0.0,0 STARLINK-4129,1 53251U 22086K   23271.98482810  .00002832  00000-0  19601-3 0  9994,2 53251  53.2153 241.6279 0001369  91.0723 269.0426 15.08833396 66118,6917.901,95.438,540.713,538.819,0.0
53251.0,STARLINK-4129,PAYLOAD,2023-09-29 07:35:04,15.08844887,0.0001523,53.2151,240.1401,90.0916,270.025,0.00032343,4.864e-05,0.0,0 STARLINK-4129,1 53251U 22086K   23272.31602423  .00004864  00000-0  32343-3 0  9991,2 53251  53.2151 240.1401 0001523  90.0916 270.0250 15.08844887 66161,6917.865,95.437,540.784,538.677,0.0
53251.0,STARLINK-4129,PAYLOAD,2023-09-30 04:15:04,15.0885616,0.000146,53.2158,236.2724,105.2362,254.8792,0.00035799,5.417e-05,0.0,0 STARLINK-4129,1 53251U 22086K   23273.17713738  .00005417  00000-0  35799-3 0  9991,2 53251  53.2158 236.2724 0001460 105.2362 254.8792 15.08856160 66478,6917.831,95.437,540.706,538.686,0.0
53251.0,STARLINK-4129,PAYLOAD,2023-10-01 02:30:28,15.08843991,0.0002261,53.216,232.1014,143.4204,216.6943,0.00011348,1.518e-05,0.0,0 STARLINK-4129,1 53251U 22086K   23274.10450048  .00001518  00000-0  11348-3 0  9999,2 53251  53.2160 232.1014 0002261 143.4204 216.6943 15.08843991 66435,6917.868,95.437,541.297,538.169,0.0
53251.0,STARLINK-4129,PAYLOAD,2023-10-01 04:05:52,15.08844438,0.0001337,53.2165,231.8128,86.4325,273.682,9.6979e-05,1.256e-05,0.0,0 STARLINK-4129,1 53251U 22086K   23274.17074251  .00001256  00000-0  96979-4 0  9997,2 53251  53.2165 231.8128 0001337  86.4325 273.6820 15.08844438 66620,6917.867,95.437,540.657,538.807,0.0
53251.0,STARLINK-4129,PAYLOAD,2023-10-01 21:35:06,15.08841012,0.0001254,53.2164,228.5438,89.6433,270.4702,0.00016617,2.358e-05,0.0,0 STARLINK-4129,1 53251U 22086K   23274.89938518  .00002358  00000-0  16617-3 0  9995,2 53251  53.2164 228.5438 0001254  89.6433 270.4702 15.08841012 66730,6917.877,95.437,540.61,538.875,0.0
53251.0,STARLINK-4129,PAYLOAD,2023-10-02 05:32:02,15.08859103,0.0001278,53.2165,227.0556,82.2707,277.843,0.0013205,0.00020801,0.0,0 STARLINK-4129,1 53251U 22086K   23275.23058323  .00020801  00000-0  13205-2 0  9993,2 53251  53.2165 227.0556 0001278  82.2707 277.8430 15.08859103 66600,6917.822,95.436,540.571,538.803,0.0
53251.0,STARLINK-4129,PAYLOAD,2023-10-02 21:25:54,15.08840204,0.0001864,53.2166,224.0837,91.4694,268.6512,9.3459e-05,1.2e-05,0.0,0 STARLINK-4129,1 53251U 22086K   23275.89298672  .00001200  00000-0  93459-4 0  9991,2 53251  53.2166 224.0837 0001864  91.4694 268.6512 15.08840204 66700,6917.88,95.438,541.034,538.455,0.0
53251.0,STARLINK-4129,PAYLOAD,2023-10-03 13:19:45,15.08842174,0.0001369,53.2163,221.1114,99.9536,260.1611,0.00017037,2.425e-05,0.0,0 STARLINK-4129,1 53251U 22086K   23276.55538585  .00002425  00000-0  17037-3 0  9992,2 53251  53.2163 221.1114 0001369  99.9536 260.1611 15.08842174 66986,6917.874,95.437,540.686,538.792,0.0
53251.0,STARLINK-4129,PAYLOAD,2023-10-04 05:13:37,15.08831878,0.0001478,53.2168,218.1382,103.648,256.4677,3.3167e-05,2.4e-06,0.0,0 STARLINK-4129,1 53251U 22086K   23277.21779135  .00000240  00000-0  33167-4 0  9990,2 53251  53.2168 218.1382 0001478 103.6480 256.4677 15.08831878 66907,6917.905,95.438,540.793,538.748,0.0
53251.0,STARLINK-4129,PAYLOAD,2023-10-04 13:10:32,15.08841875,0.0002136,53.216,216.6498,86.7416,273.382,0.00019001,2.737e-05,0.0,0 STARLINK-4129,1 53251U 22086K   23277.54899289  .00002737  00000-0  19001-3 0  9992,2 53251  53.2160 216.6498 0002136  86.7416 273.3820 15.08841875 67134,6917.875,95.437,541.217,538.262,0.0
53251.0,STARLINK-4129,PAYLOAD,2023-10-05 01:53:37,15.08847523,0.000175,53.2165,214.2727,92.8977,267.2216,0.00028884,4.313e-05,0.0,0 STARLINK-4129,1 53251U 22086K   23278.07891030  .00004313  00000-0  28884-3 0  9998,2 53251  53.2165 214.2727 0001750  92.8977 267.2216 15.08847523 67035,6917.857,95.437,540.933,538.512,0.0
53251.0,STARLINK-4129,PAYLOAD,2023-10-05 05:04:23,15.08857107,0.0001404,53.2156,213.6768,95.2978,264.8174,0.00056963,8.794e-05,0.0,0 STARLINK-4129,1 53251U 22086K   23278.21138376  .00008794  00000-0  56963-3 0  9997,2 53251  53.2156 213.6768 0001404  95.2978 264.8174 15.08857107 67054,6917.828,95.436,540.664,538.722,0.0
53251.0,STARLINK-4129,PAYLOAD,2023-10-05 13:01:20,15.08836011,0.0002011,53.2165,212.1907,84.2455,275.8767,6.4428e-05,7.37e-06,0.0,0 STARLINK-4129,1 53251U 22086K   23278.54259416  .00000737  00000-0  64428-4 0  9997,2 53251  53.2165 212.1907 0002011  84.2455 275.8767 15.08836011 67282,6917.893,95.438,541.149,538.366,0.0
53251.0,STARLINK-4129,PAYLOAD,2023-10-06 04:55:10,15.08854628,0.00016,53.2165,209.2153,87.2135,272.9041,0.00034313,5.179e-05,0.0,0 STARLINK-4129,1 53251U 22086K   23279.20498659  .00005179  00000-0  34313-3 0  9999,2 53251  53.2165 209.2153 0001600  87.2135 272.9041 15.08854628 67202,6917.836,95.437,540.808,538.594,0.0
53251.0,STARLINK-4129,PAYLOAD,2023-10-06 12:52:06,15.08841606,0.0001334,53.2173,207.7289,93.3563,266.7581,7.6019e-05,9.22e-06,0.0,0 STARLINK-4129,1 53251U 22086K   23279.53619069  .00000922  00000-0  76019-4 0  9996,2 53251  53.2173 207.7289 0001334  93.3563 266.7581 15.08841606 67438,6917.875,95.437,540.663,538.818,0.0
53251.0,STARLINK-4129,PAYLOAD,2023-10-07 04:45:58,15.08845634,0.0001534,53.2154,204.7534,109.1819,250.9339,0.00015637,2.202e-05,0.0,0 STARLINK-4129,1 53251U 22086K   23280.19859018  .00002202  00000-0  15637-3 0  9991,2 53251  53.2154 204.7534 0001534 109.1819 250.9339 15.08845634 67531,6917.863,95.437,540.789,538.667,0.0
53251.0,STARLINK-4129,PAYLOAD,2023-10-07 19:04:26,15.08840653,0.0001979,53.2144,202.0781,97.538,262.5837,0.0002037,2.955e-05,0.0,0 STARLINK-4129,1 53251U 22086K   23280.79475665  .00002955  00000-0  20370-3 0  9994,2 53251  53.2144 202.0781 0001979  97.5380 262.5837 15.08840653 67449,6917.878,95.438,541.112,538.374,0.0
53251.0,STARLINK-4129,PAYLOAD,2023-10-07 22:15:13,15.0883915,0.0001545,53.214,201.4842,105.7073,254.409,0.00017943,2.569e-05,0.0,0 STARLINK-4129,1 53251U 22086K   23280.92723559  .00002569  00000-0  17943-3 0  9990,2 53251  53.2140 201.4842 0001545 105.7073 254.4090 15.08839150 67649,6917.883,95.438,540.817,538.679,0.0
53251.0,STARLINK-4129,PAYLOAD,2023-10-08 04:36:45,15.0884894,0.0001527,53.2164,200.2935,105.7974,254.3187,0.0006035,9.332e-05,0.0,0 STARLINK-4129,1 53251U 22086K   23281.19219434  .00009332  00000-0  60350-3 0  9997,2 53251  53.2164 200.2935 0001527 105.7974 254.3187 15.08848940 67682,6917.853,95.437,540.774,538.662,0.0
53251.0,STARLINK-4129,PAYLOAD,2023-10-09 02:52:08,15.08875945,0.0001429,53.2167,196.1329,83.7105,276.4049,0.0015961,0.0002523,0.0,0 STARLINK-4129,1 53251U 22086K   23282.11954684  .00025230  00000-0  15961-2 0  9995,2 53251  53.2167 196.1329 0001429  83.7105 276.4049 15.08875945 67640,6917.771,95.435,540.624,538.647,0.0
